$$SOE
2460728.500000000, A.D. 2025-Feb-22 00:00:00.0000, -4.252096384324228E+08, -2.412142064597629E+08, 2.409400718761028E+07,
2460735.500000000, A.D. 2025-Mar-01 00:00:00.0000, -4.206326669729314E+08, -2.499808641771435E+08, 2.414664849800517E+07,
2460742.500000000, A.D. 2025-Mar-08 00:00:00.0000, -4.158820189299820E+08, -2.586443750009634E+08, 2.418931988948339E+07,
2460749.500000000, A.D. 2025-Mar-15 00:00:00.0000, -4.109601168400627E+08, -2.672014493595596E+08, 2.422203048919912E+07,
2460756.500000000, A.D. 2025-Mar-22 00:00:00.0000, -4.058694389614835E+08, -2.756488553018085E+08, 2.424479355529489E+07,
2460763.500000000, A.D. 2025-Mar-29 00:00:00.0000, -4.006125186081582E+08, -2.839834208961813E+08, 2.425762636475740E+07,
2460770.500000000, A.D. 2025-Apr-05 00:00:00.0000, -3.951919418043334E+08, -2.922020357089439E+08, 2.426055001859297E+07,
2460777.500000000, A.D. 2025-Apr-12 00:00:00.0000, -3.896103451865647E+08, -3.003016512565516E+08, 2.425358934926651E+07,
2460784.500000000, A.D. 2025-Apr-19 00:00:00.0000, -3.838704143392116E+08, -3.082792813128568E+08, 2.423677287515908E+07,
2460791.500000000, A.D. 2025-Apr-26 00:00:00.0000, -3.779748822905823E+08, -3.161320022744234E+08, 2.421013276009525E+07,
2460798.500000000, A.D. 2025-May-03 00:00:00.0000, -3.719265280552509E+08, -3.238569535660275E+08, 2.417370476873226E+07,
2460805.500000000, A.D. 2025-May-10 00:00:00.0000, -3.657281751939291E+08, -3.314513380796403E+08, 2.412752821570066E+07,
2460812.500000000, A.D. 2025-May-17 00:00:00.0000, -3.593826903549390E+08, -3.389124226901101E+08, 2.407164590172392E+07,
2460819.500000000, A.D. 2025-May-24 00:00:00.0000, -3.528929816246917E+08, -3.462375389039607E+08, 2.400610401638673E+07,
2460826.500000000, A.D. 2025-May-31 00:00:00.0000, -3.462619962707987E+08, -3.534240833317316E+08, 2.393095199478005E+07,
2460833.500000000, A.D. 2025-Jun-07 00:00:00.0000, -3.394927182797360E+08, -3.604695167798353E+08, 2.384624246338850E+07,
2460840.500000000, A.D. 2025-Jun-14 00:00:00.0000, -3.325881680537895E+08, -3.673713626292756E+08, 2.375203143764661E+07,
2460847.500000000, A.D. 2025-Jun-21 00:00:00.0000, -3.255514030506704E+08, -3.741272077738647E+08, 2.364837839224760E+07,
2460854.500000000, A.D. 2025-Jun-28 00:00:00.0000, -3.183855162385942E+08, -3.807347043548757E+08, 2.353534606165598E+07,
2460861.500000000, A.D. 2025-Jul-05 00:00:00.0000, -3.110936338843467E+08, -3.871915701362557E+08, 2.341300028636250E+07,
2460868.500000000, A.D. 2025-Jul-12 00:00:00.0000, -3.036789138652500E+08, -3.934955883257172E+08, 2.328140994838695E+07,
2460875.500000000, A.D. 2025-Jul-19 00:00:00.0000, -2.961445443148895E+08, -3.996446074170316E+08, 2.314064693164884E+07,
2460882.500000000, A.D. 2025-Jul-26 00:00:00.0000, -2.884937423921313E+08, -4.056365411109195E+08, 2.299078608334117E+07,
2460889.500000000, A.D. 2025-Aug-02 00:00:00.0000, -2.807297531078422E+08, -4.114693682940425E+08, 2.283190517217562E+07,
2460896.500000000, A.D. 2025-Aug-09 00:00:00.0000, -2.728558481859757E+08, -4.171411330917752E+08, 2.266408484034450E+07,
2460903.500000000, A.D. 2025-Aug-16 00:00:00.0000, -2.648753248821850E+08, -4.226499450587670E+08, 2.248740853720999E+07,
2460910.500000000, A.D. 2025-Aug-23 00:00:00.0000, -2.567915044673532E+08, -4.279939794914358E+08, 2.230196240948758E+07,
2460917.500000000, A.D. 2025-Aug-30 00:00:00.0000, -2.486077300470392E+08, -4.331714771488540E+08, 2.210783517637262E+07,
2460924.500000000, A.D. 2025-Sep-06 00:00:00.0000, -2.403273651346532E+08, -4.381807423819516E+08, 2.190511820167059E+07,
2460931.500000000, A.D. 2025-Sep-13 00:00:00.0000, -2.319537946482890E+08, -4.430201421541319E+08, 2.169390571342438E+07,
2460938.500000000, A.D. 2025-Sep-20 00:00:00.0000, -2.234904250573950E+08, -4.476881075990043E+08, 2.147429473664206E+07,
2460945.500000000, A.D. 2025-Sep-27 00:00:00.0000, -2.149406826209729E+08, -4.521831350051838E+08, 2.124638489664215E+07,
2460952.500000000, A.D. 2025-Oct-04 00:00:00.0000, -2.063080117342235E+08, -4.565037856895452E+08, 2.101027832232922E+07,
2460959.500000000, A.D. 2025-Oct-11 00:00:00.0000, -1.975958737570680E+08, -4.606486857019889E+08, 2.076607960672686E+07,
2460966.500000000, A.D. 2025-Oct-18 00:00:00.0000, -1.888077460403185E+08, -4.646165256361605E+08, 2.051389577631178E+07,
2460973.500000000, A.D. 2025-Oct-25 00:00:00.0000, -1.799471210092549E+08, -4.684060605353819E+08, 2.025383625714895E+07,
2460980.500000000, A.D. 2025-Nov-01 00:00:00.0000, -1.710175052645657E+08, -4.720161098789197E+08, 1.998601283534780E+07,
2460987.500000000, A.D. 2025-Nov-08 00:00:00.0000, -1.620224186657844E+08, -4.754455576807655E+08, 1.971053960598496E+07,
2460994.500000000, A.D. 2025-Nov-15 00:00:00.0000, -1.529653932492533E+08, -4.786933527601810E+08, 1.942753289201954E+07,
2461001.500000000, A.D. 2025-Nov-22 00:00:00.0000, -1.438499715779410E+08, -4.817585089644663E+08, 1.913711111411691E+07,
2461008.500000000, A.D. 2025-Nov-29 00:00:00.0000, -1.346797046764391E+08, -4.846401042092173E+08, 1.883939471804005E+07,
2461015.500000000, A.D. 2025-Dec-06 00:00:00.0000, -1.254581518285637E+08, -4.873372784716388E+08, 1.853450635717693E+07,
2461022.500000000, A.D. 2025-Dec-13 00:00:00.0000, -1.161888818034176E+08, -4.898492341065435E+08, 1.822257101474094E+07,
2461029.500000000, A.D. 2025-Dec-20 00:00:00.0000, -1.068754720162641E+08, -4.921752374617786E+08, 1.790371582870322E+07,
2461036.500000000, A.D. 2025-Dec-27 00:00:00.0000, -9.752150669773582E+07, -4.943146192014014E+08, 1.757806992965716E+07,
2461043.500000000, A.D. 2026-Jan-03 00:00:00.0000, -8.813057552978452E+07, -4.962667739511024E+08, 1.724576437506402E+07,
2461050.500000000, A.D. 2026-Jan-10 00:00:00.0000, -7.870627263727808E+07, -4.980311599439840E+08, 1.690693211426011E+07,
2461057.500000000, A.D. 2026-Jan-17 00:00:00.0000, -6.925219570140746E+07, -4.996072987581507E+08, 1.656170795540518E+07,
2461064.500000000, A.D. 2026-Jan-24 00:00:00.0000, -5.977194511610383E+07, -5.009947751238401E+08, 1.621022852915809E+07,
2461071.500000000, A.D. 2026-Jan-31 00:00:00.0000, -5.026912316363081E+07, -5.021932368079964E+08, 1.585263224647170E+07,
2461078.500000000, A.D. 2026-Feb-07 00:00:00.0000, -4.074733314781237E+07, -5.032023946339173E+08, 1.548905924038091E+07,
2461085.500000000, A.D. 2026-Feb-14 00:00:00.0000, -3.121017823194496E+07, -5.040220226511519E+08, 1.511965126752090E+07,
2461092.500000000, A.D. 2026-Feb-21 00:00:00.0000, -2.166125959389408E+07, -5.046519578781710E+08, 1.474455158115277E+07,
2461099.500000000, A.D. 2026-Feb-28 00:00:00.0000, -1.210417498316598E+07, -5.050920984635254E+08, 1.436390496955425E+07,
2461106.500000000, A.D. 2026-Mar-07 00:00:00.0000, -2.542519738048775E+06, -5.053424022142253E+08, 1.397785798920235E+07,
2461113.500000000, A.D. 2026-Mar-14 00:00:00.0000, 7.020112514006079E+06, -5.054028878233380E+08, 1.358655894746110E+07,
2461120.500000000, A.D. 2026-Mar-21 00:00:00.0000, 1.658013125665233E+07, -5.052736358993909E+08, 1.319015770817015E+07,
2461127.500000000, A.D. 2026-Mar-28 00:00:00.0000, 2.613395057663854E+07, -5.049547887695825E+08, 1.278880558867511E+07,
2461134.500000000, A.D. 2026-Apr-04 00:00:00.0000, 3.567799014412816E+07, -5.044465500226144E+08, 1.238265532492971E+07,
2461141.500000000, A.D. 2026-Apr-11 00:00:00.0000, 4.520867595566356E+07, -5.037491841510282E+08, 1.197186105029702E+07,
2461148.500000000, A.D. 2026-Apr-18 00:00:00.0000, 5.472244099959615E+07, -5.028630162995390E+08, 1.155657827304715E+07,
2461155.500000000, A.D. 2026-Apr-25 00:00:00.0000, 6.421572589063207E+07, -5.017884321043539E+08, 1.113696384967729E+07,
2461162.500000000, A.D. 2026-May-02 00:00:00.0000, 7.368497950533240E+07, -5.005258776529404E+08, 1.071317594893879E+07,
2461169.500000000, A.D. 2026-May-09 00:00:00.0000, 8.312665974443145E+07, -4.990758596306900E+08, 1.028537398987809E+07,
2461176.500000000, A.D. 2026-May-16 00:00:00.0000, 9.253723480097578E+07, -4.974389455166845E+08, 9.853718530700117E+06,
2461183.500000000, A.D. 2026-May-23 00:00:00.0000, 1.019131849867486E+08, -4.956157628067467E+08, 9.418371187383085E+06,
2461190.500000000, A.D. 2026-May-30 00:00:00.0000, 1.112510030387512E+08, -4.936069969441972E+08, 8.979494798798561E+06,
2461197.500000000, A.D. 2026-Jun-06 00:00:00.0000, 1.205471925887750E+08, -4.914133912309527E+08, 8.537253599727958E+06,
2461204.500000000, A.D. 2026-Jun-13 00:00:00.0000, 1.297982684629759E+08, -4.890357485195025E+08, 8.091813081552655E+06,
2461211.500000000, A.D. 2026-Jun-20 00:00:00.0000, 1.390007583112435E+08, -4.864749317601023E+08, 7.643339825509995E+06,
2461218.500000000, A.D. 2026-Jun-27 00:00:00.0000, 1.481512038683136E+08, -4.837318637433616E+08, 7.192001436292052E+06,
2461225.500000000, A.D. 2026-Jul-04 00:00:00.0000, 1.572461618466866E+08, -4.808075268129057E+08, 6.737966512384504E+06,
2461232.500000000, A.D. 2026-Jul-11 00:00:00.0000, 1.662822047155060E+08, -4.777029626795356E+08, 6.281404618773907E+06,
2461239.500000000, A.D. 2026-Jul-18 00:00:00.0000, 1.752559214584236E+08, -4.744192723104901E+08, 5.822486255316049E+06,
2461246.500000000, A.D. 2026-Jul-25 00:00:00.0000, 1.841639183354143E+08, -4.709576158902973E+08, 5.361382818459004E+06,
2461253.500000000, A.D. 2026-Aug-01 00:00:00.0000, 1.930028196974948E+08, -4.673192129006902E+08, 4.898266547731817E+06,
2461260.500000000, A.D. 2026-Aug-08 00:00:00.0000, 2.017692690702806E+08, -4.635053423553784E+08, 4.433310434224606E+06,
2461267.500000000, A.D. 2026-Aug-15 00:00:00.0000, 2.104599309221417E+08, -4.595173427398161E+08, 3.966688089782983E+06,
2461274.500000000, A.D. 2026-Aug-22 00:00:00.0000, 2.190714923557591E+08, -4.553566104351914E+08, 3.498573746551871E+06,
2461281.500000000, A.D. 2026-Aug-29 00:00:00.0000, 2.276006624330015E+08, -4.510245979986055E+08, 3.029142484562993E+06,
2461288.500000000, A.D. 2026-Sep-05 00:00:00.0000, 2.360441712661490E+08, -4.465228151652569E+08, 2.558570257076591E+06,
2461295.500000000, A.D. 2026-Sep-12 00:00:00.0000, 2.443987713312604E+08, -4.418528300751055E+08, 2.087033692330599E+06,
$$EOE